[{"OBJECT_NAME":"STARLINK-34963","OBJECT_ID":"2025-179H","EPOCH":"2026-03-09T16:54:12.774528","MEAN_MOTION":15.05654928,"ECCENTRICITY":0.00025698,"INCLINATION":97.6023,"RA_OF_ASC_NODE":113.0284,"ARG_OF_PERICENTER":120.1192,"MEAN_ANOMALY":240.0289,"EPHEMERIS_TYPE":0,"CLASSIFICATION_TYPE":"U","NORAD_CAT_ID":65242,"ELEMENT_SET_NO":999,"REV_AT_EPOCH":3197,"BSTAR":0.00038689906,"MEAN_MOTION_DOT":5.527e-5,"MEAN_MOTION_DDOT":0},{"OBJECT_NAME":"COSMOS 2251 DEB","OBJECT_ID":"1993-036APY","EPOCH":"2026-02-27T18:53:11.975424","MEAN_MOTION":14.91799606,"ECCENTRICITY":0.00652266,"INCLINATION":74.0385,"RA_OF_ASC_NODE":248.3743,"ARG_OF_PERICENTER":297.547,"MEAN_ANOMALY":61.9095,"EPHEMERIS_TYPE":0,"CLASSIFICATION_TYPE":"U","NORAD_CAT_ID":35703,"ELEMENT_SET_NO":999,"REV_AT_EPOCH":67764,"BSTAR":0.00062223908,"MEAN_MOTION_DOT":6.504e-5,"MEAN_MOTION_DDOT":0}]
